IRIDIUM 166             
1 43570U 18061B   24114.25965246  .00001376  00000+0  48419-3 0  9991
2 43570  86.4017  24.7609 0002311  87.5059 272.6401 14.34215385300894
IRIDIUM 158             
1 43571U 18061C   24114.29771361  .00000398  00000+0  13499-3 0  9992
2 43571  86.4022  24.7531 0002167  84.9337 275.2106 14.34217023300863
IRIDIUM 165             
1 43572U 18061D   24114.25331567  .00000351  00000+0  11841-3 0  9997
2 43572  86.4023  24.8029 0002014  81.6516 278.4908 14.34217145300884
IRIDIUM 155             
1 43573U 18061E   24114.28500066  .00000886  00000+0  30936-3 0  9992
2 43573  86.4021  24.6978 0002370  85.7582 274.3885 14.34206845300858
IRIDIUM 154             
1 43574U 18061F   24114.26599828  .00000242  00000+0  79372-4 0  9999
2 43574  86.4022  24.8007 0002326  90.2481 269.8981 14.34215899300906
IRIDIUM 163             
1 43575U 18061G   24114.24696586  .00001008  00000+0  35277-3 0  9993
2 43575  86.4020  24.7486 0002327  84.2000 275.9462 14.34219484300878
IRIDIUM 156             
1 43576U 18061H   24114.22159741  .00000570  00000+0  19656-3 0  9995
2 43576  86.4018  24.7650 0002097  84.8692 275.2743 14.34221407300868
IRIDIUM 164             
1 43577U 18061J   24114.27234329  .00000152  00000+0  47208-4 0  9998
2 43577  86.4022  24.7728 0001947  91.8476 268.2942 14.34216744300918
